{
  "type": "FeatureCollection",
  "features": [
    {
      "type": "Feature",
      "properties": {
        "norad_id": 33412,
        "name": "COSMO-SKYMED 3",
        "group": "resource",
        "lat": -41.4614083150784,
        "lon": -161.08849386534814,
        "alt_km": 563.774053014864,
        "timestamp": "2025-12-07T14:37:04.866048+00:00",
        "meta_object_name": "COSMO-SKYMED 3",
        "meta_object_id": "2008-054A",
        "meta_epoch": "2025-12-06T18:03:51.768000",
        "meta_mean_motion": 15.05266571,
        "meta_eccentricity": 0.00157103,
        "meta_inclination": 97.8455,
        "meta_ra_of_asc_node": 191.0437,
        "meta_arg_of_pericenter": 194.2584,
        "meta_mean_anomaly": 165.8201,
        "meta_ephemeris_type": 0,
        "meta_classification_type": "U",
        "meta_norad_cat_id": 33412,
        "meta_element_set_no": 999,
        "meta_rev_at_epoch": 92797,
        "meta_bstar": 0.00057274343,
        "meta_mean_motion_dot": 8.147e-05,
        "meta_mean_motion_ddot": 0,
        "tle_line1": "1 33412U 08054A   25340.75268250  .00008147  00000+0  57274-3 0  9996",
        "tle_line2": "2 33412  97.8455 191.0437 0015710 194.2584 165.8201 15.05266571927970"
      },
      "geometry": {
        "type": "Point",
        "coordinates": [
          -161.08849386534814,
          -41.4614083150784
        ]
      }
    },
    {
      "type": "Feature",
      "properties": {
        "norad_id": 33446,
        "name": "YAOGAN-4",
        "group": "resource",
        "lat": -3.090315738577056,
        "lon": -87.81099489182515,
        "alt_km": 614.8869087554804,
        "timestamp": "2025-12-07T14:37:04.866059+00:00",
        "meta_object_name": "YAOGAN-4",
        "meta_object_id": "2008-061A",
        "meta_epoch": "2025-12-06T19:11:44.118816",
        "meta_mean_motion": 14.82653709,
        "meta_eccentricity": 0.00141035,
        "meta_inclination": 97.9176,
        "meta_ra_of_asc_node": 270.9574,
        "meta_arg_of_pericenter": 343.3516,
        "meta_mean_anomaly": 16.7232,
        "meta_ephemeris_type": 0,
        "meta_classification_type": "U",
        "meta_norad_cat_id": 33446,
        "meta_element_set_no": 999,
        "meta_rev_at_epoch": 91715,
        "meta_bstar": 0.00034781722,
        "meta_mean_motion_dot": 2.754e-05,
        "meta_mean_motion_ddot": 0,
        "tle_line1": "1 33446U 08061A   25340.79981619  .00002754  00000+0  34782-3 0  9993",
        "tle_line2": "2 33446  97.9176 270.9574 0014103 343.3516  16.7232 14.82653709917158"
      },
      "geometry": {
        "type": "Point",
        "coordinates": [
          -87.81099489182515,
          -3.090315738577056
        ]
      }
    },
    {
      "type": "Feature",
      "properties": {
        "norad_id": 33492,
        "name": "GOSAT (IBUKI)",
        "group": "resource",
        "lat": -31.902287840454424,
        "lon": 95.35506590567017,
        "alt_km": 675.323316099847,
        "timestamp": "2025-12-07T14:37:04.866069+00:00",
        "meta_object_name": "GOSAT (IBUKI)",
        "meta_object_id": "2009-002A",
        "meta_epoch": "2025-12-06T22:24:03.593088",
        "meta_mean_motion": 14.6753711,
        "meta_eccentricity": 9.886e-05,
        "meta_inclination": 98.077,
        "meta_ra_of_asc_node": 89.6174,
        "meta_arg_of_pericenter": 86.0916,
        "meta_mean_anomaly": 274.0401,
        "meta_ephemeris_type": 0,
        "meta_classification_type": "U",
        "meta_norad_cat_id": 33492,
        "meta_element_set_no": 999,
        "meta_rev_at_epoch": 90326,
        "meta_bstar": 0.00030286071,
        "meta_mean_motion_dot": 1.67e-05,
        "meta_mean_motion_ddot": 0,
        "tle_line1": "1 33492U 09002A   25340.93337492  .00001670  00000+0  30286-3 0  9991",
        "tle_line2": "2 33492  98.0770  89.6174 0000988  86.0916 274.0401 14.67537110903267"
      },
      "geometry": {
        "type": "Point",
        "coordinates": [
          95.35506590567017,
          -31.902287840454424
        ]
      }
    },
    {
      "type": "Feature",
      "properties": {
        "norad_id": 35681,
        "name": "DEIMOS-1",
        "group": "resource",
        "lat": -82.24960806559497,
        "lon": -122.4762816529599,
        "alt_km": 654.5917044578746,
        "timestamp": "2025-12-07T14:37:04.866081+00:00",
        "meta_object_name": "DEIMOS-1",
        "meta_object_id": "2009-041A",
        "meta_epoch": "2025-12-06T22:44:49.470720",
        "meta_mean_motion": 14.74938766,
        "meta_eccentricity": 0.0002688,
        "meta_inclination": 97.7153,
        "meta_ra_of_asc_node": 141.8212,
        "meta_arg_of_pericenter": 91.0249,
        "meta_mean_anomaly": 269.1268,
        "meta_ephemeris_type": 0,
        "meta_classification_type": "U",
        "meta_norad_cat_id": 35681,
        "meta_element_set_no": 999,
        "meta_rev_at_epoch": 87854,
        "meta_bstar": 0.00019622315,
        "meta_mean_motion_dot": 1.271e-05,
        "meta_mean_motion_ddot": 0,
        "tle_line1": "1 35681U 09041A   25340.94779480  .00001271  00000+0  19622-3 0  9992",
        "tle_line2": "2 35681  97.7153 141.8212 0002688  91.0249 269.1268 14.74938766878546"
      },
      "geometry": {
        "type": "Point",
        "coordinates": [
          -122.4762816529599,
          -82.24960806559497
        ]
      }
    },
    {
      "type": "Feature",
      "properties": {
        "norad_id": 35682,
        "name": "DUBAISAT-1",
        "group": "resource",
        "lat": -30.278876714862246,
        "lon": -72.33283450902049,
        "alt_km": 656.1455351462373,
        "timestamp": "2025-12-07T14:37:04.866092+00:00",
        "meta_object_name": "DUBAISAT-1",
        "meta_object_id": "2009-041B",
        "meta_epoch": "2025-12-06T21:22:47.978112",
        "meta_mean_motion": 14.74578144,
        "meta_eccentricity": 0.00098976,
        "meta_inclination": 97.979,
        "meta_ra_of_asc_node": 111.6571,
        "meta_arg_of_pericenter": 334.7769,
        "meta_mean_anomaly": 25.2956,
        "meta_ephemeris_type": 0,
        "meta_classification_type": "U",
        "meta_norad_cat_id": 35682,
        "meta_element_set_no": 999,
        "meta_rev_at_epoch": 87675,
        "meta_bstar": 0.00038288746,
        "meta_mean_motion_dot": 2.502e-05,
        "meta_mean_motion_ddot": 0,
        "tle_line1": "1 35682U 09041B   25340.89083308  .00002502  00000+0  38289-3 0  9992",
        "tle_line2": "2 35682  97.9790 111.6571 0009897 334.7769  25.2956 14.74578144876758"
      },
      "geometry": {
        "type": "Point",
        "coordinates": [
          -72.33283450902049,
          -30.278876714862246
        ]
      }
    },
    {
      "type": "Feature",
      "properties": {
        "norad_id": 35931,
        "name": "OCEANSAT-2",
        "group": "resource",
        "lat": -29.118329232506504,
        "lon": -12.650232174002587,
        "alt_km": 900.40216991746,
        "timestamp": "2025-12-07T14:37:04.866103+00:00",
        "meta_object_name": "OCEANSAT-2",
        "meta_object_id": "2009-051A",
        "meta_epoch": "2025-12-06T23:19:01.037856",
        "meta_mean_motion": 13.99625921,
        "meta_eccentricity": 0.00164398,
        "meta_inclination": 98.2226,
        "meta_ra_of_asc_node": 342.1572,
        "meta_arg_of_pericenter": 60.0747,
        "meta_mean_anomaly": 300.2051,
        "meta_ephemeris_type": 0,
        "meta_classification_type": "U",
        "meta_norad_cat_id": 35931,
        "meta_element_set_no": 999,
        "meta_rev_at_epoch": 85244,
        "meta_bstar": -8.3164716e-05,
        "meta_mean_motion_dot": -1.59e-06,
        "meta_mean_motion_ddot": 0,
        "tle_line1": "1 35931U 09051A   25340.97153979 -.00000159  00000+0 -83165-4 0  9993",
        "tle_line2": "2 35931  98.2226 342.1572 0016439  60.0747 300.2051 13.99625921852444"
      },
      "geometry": {
        "type": "Point",
        "coordinates": [
          -12.650232174002587,
          -29.118329232506504
        ]
      }
    },
    {
      "type": "Feature",
      "properties": {
        "norad_id": 35946,
        "name": "WORLDVIEW-2 (WV-2)",
        "group": "resource",
        "lat": 67.94796407731103,
        "lon": -105.63378298763506,
        "alt_km": 756.3558380467721,
        "timestamp": "2025-12-07T14:37:04.866113+00:00",
        "meta_object_name": "WORLDVIEW-2 (WV-2)",
        "meta_object_id": "2009-055A",
        "meta_epoch": "2025-12-06T21:24:11.644416",
        "meta_mean_motion": 14.37648582,
        "meta_eccentricity": 0.00054027,
        "meta_inclination": 98.4766,
        "meta_ra_of_asc_node": 52.0577,
        "meta_arg_of_pericenter": 80.9438,
        "meta_mean_anomaly": 279.2361,
        "meta_ephemeris_type": 0,
        "meta_classification_type": "U",
        "meta_norad_cat_id": 35946,
        "meta_element_set_no": 999,
        "meta_rev_at_epoch": 84801,
        "meta_bstar": 0.00013269164,
        "meta_mean_motion_dot": 3.55e-06,
        "meta_mean_motion_ddot": 0,
        "tle_line1": "1 35946U 09055A   25340.89180144  .00000355  00000+0  13269-3 0  9991",
        "tle_line2": "2 35946  98.4766  52.0577 0005402  80.9438 279.2361 14.37648582848017"
      },
      "geometry": {
        "type": "Point",
        "coordinates": [
          -105.63378298763506,
          67.94796407731103
        ]
      }
    }
  ]
}